{"type": "FeatureCollection", "features": [ {"type": "Feature", "properties": {"norad_id": 66645, "name": "SHENZHOU-22", "group": "last-30-days", "lat": -27.824248969017866, "lon": 176.14457651099383, "alt_km": 393.29832045456715, "timestamp": "2025-12-22T04:03:37.886076+00:00", "meta": {"OBJECT_NAME": "SHENZHOU-22", "OBJECT_ID": "2025-272A", "EPOCH": "2025-12-21T13:16:11.322912", "MEAN_MOTION": 15.59533817, "ECCENTRICITY": 0.0007788, "INCLINATION": 41.4687, "RA_OF_ASC_NODE": 323.1886, "ARG_OF_PERICENTER": 108.2472, "MEAN_ANOMALY": 251.9215, "EPHEMERIS_TYPE": 0, "CLASSIFICATION_TYPE": "U", "NORAD_CAT_ID": 66645, "ELEMENT_SET_NO": 999, "REV_AT_EPOCH": 26519, "BSTAR": 0.00020086225, "MEAN_MOTION_DOT": 0.00016128, "MEAN_MOTION_DDOT": 0}, "tle": {"line1": "1 66645U 25272A   25355.55290883  .00016128  00000+0  20086-3 0  9991", "line2": "2 66645  41.4687 323.1886 0007788 108.2472 251.9215 15.59533817265199"}}, "geometry": {"type": "Point", "coordinates": [176.14457651099383, -27.824248969017866]}}, {"type": "Feature", "properties": {"norad_id": 66647, "name": "COSMOS 2597 (RODNIK-S 22)", "group": "last-30-days", "lat": 51.640609055924116, "lon": 91.01268172773771, "alt_km": 1497.810507269579, "timestamp": "2025-12-22T04:03:37.886087+00:00", "meta": {"OBJECT_NAME": "COSMOS 2597 (RODNIK-S 22)", "OBJECT_ID": "2025-273A", "EPOCH": "2025-12-21T19:38:28.099392", "MEAN_MOTION": 12.41952093, "ECCENTRICITY": 0.0007609, "INCLINATION": 82.4994, "RA_OF_ASC_NODE": 280.8118, "ARG_OF_PERICENTER": 265.0621, "MEAN_ANOMALY": 94.959, "EPHEMERIS_TYPE": 0, "CLASSIFICATION_TYPE": "U", "NORAD_CAT_ID": 66647, "ELEMENT_SET_NO": 999, "REV_AT_EPOCH": 326, "BSTAR": 0.00015956, "MEAN_MOTION_DOT": 3.2e-07, "MEAN_MOTION_DDOT": 0}, "tle": {"line1": "1 66647U 25273A   25355.81838078  .00000032  00000+0  15956-3 0  9994", "line2": "2 66647  82.4994 280.8118 0007609 265.0621  94.9590 12.41952093  3262"}}, "geometry": {"type": "Point", "coordinates": [91.01268172773771, 51.640609055924116]}}, {"type": "Feature", "properties": {"norad_id": 66648, "name": "COSMOS 2598 (RODNIK-S 23)", "group": "last-30-days", "lat": -26.727384902752878, "lon": 104.38496277897924, "alt_km": 1492.0874051774144, "timestamp": "2025-12-22T04:03:37.886097+00:00", "meta": {"OBJECT_NAME": "COSMOS 2598 (RODNIK-S 23)", "OBJECT_ID": "2025-273B", "EPOCH": "2025-12-21T19:13:31.070784", "MEAN_MOTION": 12.43233595, "ECCENTRICITY": 0.0008121, "INCLINATION": 82.5032, "RA_OF_ASC_NODE": 280.8124, "ARG_OF_PERICENTER": 215.1975, "MEAN_ANOMALY": 144.8569, "EPHEMERIS_TYPE": 0, "CLASSIFICATION_TYPE": "U", "NORAD_CAT_ID": 66648, "ELEMENT_SET_NO": 999, "REV_AT_EPOCH": 326, "BSTAR": 0.00023095, "MEAN_MOTION_DOT": 4.2e-07, "MEAN_MOTION_DDOT": 0}, "tle": {"line1": "1 66648U 25273B   25355.80105406  .00000042  00000+0  23095-3 0  9990", "line2": "2 66648  82.5032 280.8124 0008121 215.1975 144.8569 12.43233595  3264"}}, "geometry": {"type": "Point", "coordinates": [104.38496277897924, -26.727384902752878]}}, {"type": "Feature", "properties": {"norad_id": 66649, "name": "COSMOS 2599 (RODNIK-S 24)", "group": "last-30-days", "lat": 78.97855483799853, "lon": -36.85513196963522, "alt_km": 1499.2883985700846, "timestamp": "2025-12-22T04:03:37.886108+00:00", "meta": {"OBJECT_NAME": "COSMOS 2599 (RODNIK-S 24)", "OBJECT_ID": "2025-273C", "EPOCH": "2025-12-21T19:52:55.068096", "MEAN_MOTION": 12.4115097, "ECCENTRICITY": 0.000625, "INCLINATION": 82.505, "RA_OF_ASC_NODE": 280.836, "ARG_OF_PERICENTER": 256.1703, "MEAN_ANOMALY": 103.868, "EPHEMERIS_TYPE": 0, "CLASSIFICATION_TYPE": "U", "NORAD_CAT_ID": 66649, "ELEMENT_SET_NO": 999, "REV_AT_EPOCH": 326, "BSTAR": 5.136e-05, "MEAN_MOTION_DOT": 1.7e-07, "MEAN_MOTION_DDOT": 0}, "tle": {"line1": "1 66649U 25273C   25355.82841514  .00000017  00000+0  51360-4 0  9999", "line2": "2 66649  82.5050 280.8360 0006250 256.1703 103.8680 12.41150970  3264"}}, "geometry": {"type": "Point", "coordinates": [-36.85513196963522, 78.97855483799853]}}, {"type": "Feature", "properties": {"norad_id": 66650, "name": "BEE-1000", "group": "last-30-days", "lat": 42.449574840229694, "lon": 110.33108529603783, "alt_km": 587.8590061146379, "timestamp": "2025-12-22T04:03:37.886118+00:00", "meta": {"OBJECT_NAME": "BEE-1000", "OBJECT_ID": "2025-274A", "EPOCH": "2025-12-21T17:47:17.317824", "MEAN_MOTION": 14.91688991, "ECCENTRICITY": 0.0010842, "INCLINATION": 97.7404, "RA_OF_ASC_NODE": 282.7639, "ARG_OF_PERICENTER": 218.0808, "MEAN_ANOMALY": 141.9645, "EPHEMERIS_TYPE": 0, "CLASSIFICATION_TYPE": "U", "NORAD_CAT_ID": 66650, "ELEMENT_SET_NO": 999, "REV_AT_EPOCH": 374, "BSTAR": 0.00013647, "MEAN_MOTION_DOT": 1.318e-05, "MEAN_MOTION_DDOT": 0}, "tle": {"line1": "1 66650U 25274A   25355.74117266  .00001318  00000+0  13647-3 0  9993", "line2": "2 66650  97.7404 282.7639 0010842 218.0808 141.9645 14.91688991  3745"}}, "geometry": {"type": "Point", "coordinates": [110.33108529603783, 42.449574840229694]}}, {"type": "Feature", "properties": {"norad_id": 66651, "name": "2025-274B", "group": "last-30-days", "lat": 32.38747946572999, "lon": 108.13579567466546, "alt_km": 587.3953442142365, "timestamp": "2025-12-22T04:03:37.886128+00:00", "meta": {"OBJECT_NAME": "2025-274B", "OBJECT_ID": "2025-274B", "EPOCH": "2025-12-21T17:44:37.356000", "MEAN_MOTION": 14.91854943, "ECCENTRICITY": 0.0011129, "INCLINATION": 97.7399, "RA_OF_ASC_NODE": 282.7646, "ARG_OF_PERICENTER": 216.8839, "MEAN_ANOMALY": 143.1615, "EPHEMERIS_TYPE": 0, "CLASSIFICATION_TYPE": "U", "NORAD_CAT_ID": 66651, "ELEMENT_SET_NO": 999, "REV_AT_EPOCH": 374, "BSTAR": 0.00029304, "MEAN_MOTION_DOT": 2.907e-05, "MEAN_MOTION_DDOT": 0}, "tle": {"line1": "1 66651U 25274B   25355.73932125  .00002907  00000+0  29304-3 0  9994", "line2": "2 66651  97.7399 282.7646 0011129 216.8839 143.1615 14.91854943  3749"}}, "geometry": {"type": "Point", "coordinates": [108.13579567466546, 32.38747946572999]}}, {"type": "Feature", "properties": {"norad_id": 66652, "name": "2025-274C", "group": "last-30-days", "lat": 21.53945907435423, "lon": 106.2702819657352, "alt_km": 588.4779952043154, "timestamp": "2025-12-22T04:03:37.886138+00:00", "meta": {"OBJECT_NAME": "2025-274C", "OBJECT_ID": "2025-274C", "EPOCH": "2025-12-21T17:41:43.179648", "MEAN_MOTION": 14.91946707, "ECCENTRICITY": 0.0010676, "INCLINATION": 97.7403, "RA_OF_ASC_NODE": 282.7687, "ARG_OF_PERICENTER": 223.7203, "MEAN_ANOMALY": 136.3171, "EPHEMERIS_TYPE": 0, "CLASSIFICATION_TYPE": "U", "NORAD_CAT_ID": 66652, "ELEMENT_SET_NO": 999, "REV_AT_EPOCH": 374, "BSTAR": 0.00024303, "MEAN_MOTION_DOT": 2.406e-05, "MEAN_MOTION_DDOT": 0}, "tle": {"line1": "1 66652U 25274C   25355.73730532  .00002406  00000+0  24303-3 0  9991", "line2": "2 66652  97.7403 282.7687 0010676 223.7203 136.3171 14.91946707  3740"}}, "geometry": {"type": "Point", "coordinates": [106.2702819657352, 21.53945907435423]}}, {"type": "Feature", "properties": {"norad_id": 66653, "name": "2025-274D", "group": "last-30-days", "lat": 21.107162419071955, "lon": 106.20226342813918, "alt_km": 587.7839291922919, "timestamp": "2025-12-22T04:03:37.886147+00:00", "meta": {"OBJECT_NAME": "2025-274D", "OBJECT_ID": "2025-274D", "EPOCH": "2025-12-21T17:41:35.987712", "MEAN_MOTION": 14.91944579, "ECCENTRICITY": 0.0011602, "INCLINATION": 97.7402, "RA_OF_ASC_NODE": 282.7685, "ARG_OF_PERICENTER": 220.2408, "MEAN_ANOMALY": 139.7953, "EPHEMERIS_TYPE": 0, "CLASSIFICATION_TYPE": "U", "NORAD_CAT_ID": 66653, "ELEMENT_SET_NO": 999, "REV_AT_EPOCH": 374, "BSTAR": 0.00018068, "MEAN_MOTION_DOT": 1.775e-05, "MEAN_MOTION_DDOT": 0}, "tle": {"line1": "1 66653U 25274D   25355.73722208  .00001775  00000+0  18068-3 0  9992", "line2": "2 66653  97.7402 282.7685 0011602 220.2408 139.7953 14.91944579  3747"}}, "geometry": {"type": "Point", "coordinates": [106.20226342813918, 21.107162419071955]}}, {"type": "Feature", "properties": {"norad_id": 66654, "name": "JACK E", "group": "last-30-days", "lat": 5.458587288689448, "lon": 103.94484733502402, "alt_km": 587.7187659458123, "timestamp": "2025-12-22T04:03:37.886159+00:00", "meta": {"OBJECT_NAME": "JACK E", "OBJECT_ID": "2025-274E", "EPOCH": "2025-12-21T17:37:26.478336", "MEAN_MOTION": 14.92125474, "ECCENTRICITY": 0.0012189, "INCLINATION": 97.7406, "RA_OF_ASC_NODE": 282.7729, "ARG_OF_PERICENTER": 222.0045, "MEAN_ANOMALY": 138.024, "EPHEMERIS_TYPE": 0, "CLASSIFICATION_TYPE": "U", "NORAD_CAT_ID": 66654, "ELEMENT_SET_NO": 999, "REV_AT_EPOCH": 374, "BSTAR": 0.00020602, "MEAN_MOTION_DOT": 2.041e-05, "MEAN_MOTION_DDOT": 0}, "tle": {"line1": "1 66654U 25274E   25355.73433424  .00002041  00000+0  20602-3 0  9996", "line2": "2 66654  97.7406 282.7729 0012189 222.0045 138.0240 14.92125474  3746"}}, "geometry": {"type": "Point", "coordinates": [103.94484733502402, 5.458587288689448]}}, {"type": "Feature", "properties": {"norad_id": 66655, "name": "2025-274F", "group": "last-30-days", "lat": 33.61660263995494, "lon": 108.36464309360909, "alt_km": 595.2410273716987, "timestamp": "2025-12-22T04:03:37.886169+00:00", "meta": {"OBJECT_NAME": "2025-274F", "OBJECT_ID": "2025-274F", "EPOCH": "2025-12-21T19:21:21.589632", "MEAN_MOTION": 14.91180804, "ECCENTRICITY": 0.0004816, "INCLINATION": 97.7335, "RA_OF_ASC_NODE": 282.8258, "ARG_OF_PERICENTER": 351.662, "MEAN_ANOMALY": 8.4518, "EPHEMERIS_TYPE": 0, "CLASSIFICATION_TYPE": "U", "NORAD_CAT_ID": 66655, "ELEMENT_SET_NO": 999, "REV_AT_EPOCH": 375, "BSTAR": 1.3955e-05, "MEAN_MOTION_DOT": 8.4e-07, "MEAN_MOTION_DDOT": 0}, "tle": {"line1": "1 66655U 25274F   25355.80649988  .00000084  00000+0  13955-4 0  9998", "line2": "2 66655  97.7335 282.8258 0004816 351.6620   8.4518 14.91180804  3758"}}, "geometry": {"type": "Point", "coordinates": [108.36464309360909, 33.61660263995494]}}]}